NORAD_CAT_ID,OBJECT_NAME,OBJECT_TYPE,EPOCH,MEAN_MOTION,ECCENTRICITY,INCLINATION,RA_OF_ASC_NODE,ARG_OF_PERICENTER,MEAN_ANOMALY,BSTAR,MEAN_MOTION_DOT,MEAN_MOTION_DDOT,TLE_LINE0,TLE_LINE1,TLE_LINE2,SEMIMAJOR_AXIS,PERIOD,APOGEE,PERIGEE,DECAYED
53922.0,STARLINK-5002,PAYLOAD,2024-07-29 07:31:49,15.08837334,0.0001404,53.2183,75.1959,106.9353,253.1793,1.4106e-05,-6.3e-07,0.0,0 STARLINK-5002,1 53922U 22119AN  24211.31376801 -.00000063  00000-0  14106-4 0  9991,2 53922  53.2183  75.1959 0001404 106.9353 253.1793 15.08837334103003,6917.889,95.438,540.725,538.782,0.0
53922.0,STARLINK-5002,PAYLOAD,2024-07-29 21:50:16,15.08853101,0.0001166,53.2171,72.5186,98.7349,261.3775,2.8977e-05,1.74e-06,0.0,0 STARLINK-5002,1 53922U 22119AN  24211.90991509  .00000174  00000-0  28977-4 0  9997,2 53922  53.2171  72.5186 0001166  98.7349 261.3775 15.08853101102674,6917.84,95.437,540.512,538.899,0.0
53922.0,STARLINK-5002,PAYLOAD,2024-07-30 07:22:35,15.08852711,0.0001112,53.2171,70.7329,90.3604,269.7515,-5.8553e-05,-1.22e-05,0.0,0 STARLINK-5002,1 53922U 22119AN  24212.30735527 -.00001220  00000-0 -58553-4 0  9996,2 53922  53.2171  70.7329 0001112  90.3604 269.7515 15.08852711103150,6917.842,95.437,540.476,538.937,0.0
53922.0,STARLINK-5002,PAYLOAD,2024-07-30 21:41:04,15.08834919,0.0001507,53.2173,68.0575,102.2397,257.8764,6.6397e-05,7.69e-06,0.0,0 STARLINK-5002,1 53922U 22119AN  24212.90352679  .00000769  00000-0  66397-4 0  9995,2 53922  53.2173  68.0575 0001507 102.2397 257.8764 15.08834919102822,6917.896,95.438,540.803,538.718,0.0
53922.0,STARLINK-5002,PAYLOAD,2024-07-31 07:13:23,15.08836689,0.000132,53.2173,66.2736,95.2478,264.8665,6.0933e-05,6.82e-06,0.0,0 STARLINK-5002,1 53922U 22119AN  24213.30096764  .00000682  00000-0  60933-4 0  9994,2 53922  53.2173  66.2736 0001320  95.2478 264.8665 15.08836689103303,6917.891,95.438,540.669,538.842,0.0
53922.0,STARLINK-5002,PAYLOAD,2024-07-31 21:31:52,15.08836239,0.0001445,53.2177,63.5936,82.3637,277.7519,-3.1429e-05,-7.88e-06,0.0,0 STARLINK-5002,1 53922U 22119AN  24213.89713243 -.00000788  00000-0 -31429-4 0  9993,2 53922  53.2177  63.5936 0001445  82.3637 277.7519 15.08836239103392,6917.892,95.438,540.757,538.757,0.0
53922.0,STARLINK-5002,PAYLOAD,2024-08-01 07:04:10,15.08845042,0.0001314,53.2177,61.8113,83.1015,277.0127,7.0162e-05,8.29e-06,0.0,0 STARLINK-5002,1 53922U 22119AN  24214.29456419  .00000829  00000-0  70162-4 0  9998,2 53922  53.2177  61.8113 0001314  83.1015 277.0127 15.08845042103451,6917.865,95.437,540.639,538.821,0.0
53922.0,STARLINK-5002,PAYLOAD,2024-08-01 21:22:37,15.08857776,0.0001318,53.2163,59.135,84.3158,275.7984,0.00037313,5.658e-05,0.0,0 STARLINK-5002,1 53922U 22119AN  24214.89071675  .00005658  00000-0  37313-3 0  9996,2 53922  53.2163  59.1350 0001318  84.3158 275.7984 15.08857776103121,6917.826,95.436,540.603,538.779,0.0
53922.0,STARLINK-5002,PAYLOAD,2024-08-02 13:16:30,15.08835283,0.0002356,53.2156,56.1626,79.8783,280.2474,0.00013072,1.792e-05,0.0,0 STARLINK-5002,1 53922U 22119AN  24215.55313318  .00001792  00000-0  13072-3 0  9994,2 53922  53.2156  56.1626 0002356  79.8783 280.2474 15.08835283103227,6917.895,95.438,541.39,538.13,0.0
53922.0,STARLINK-5002,PAYLOAD,2024-08-02 19:38:03,15.08825114,0.0001552,53.2156,54.9712,85.0939,275.023,-0.00023834,-4.078e-05,0.0,0 STARLINK-5002,1 53922U 22119AN  24215.81809355 -.00004078  00000-0 -23834-3 0  9993,2 53922  53.2156  54.9712 0001552  85.0939 275.0230 15.08825114103682,6917.926,95.438,540.865,538.717,0.0
53922.0,STARLINK-5002,PAYLOAD,2024-08-03 06:45:45,15.08834434,0.0001584,53.2161,52.8882,89.7591,270.3583,0.00035689,5.396e-05,0.0,0 STARLINK-5002,1 53922U 22119AN  24216.28177493  .00005396  00000-0  35689-3 0  9999,2 53922  53.2161  52.8882 0001584  89.7591 270.3583 15.08834434103339,6917.897,95.438,540.858,538.667,0.0
53922.0,STARLINK-5002,PAYLOAD,2024-08-03 19:28:50,15.08867173,0.0001546,53.2156,50.51,83.2002,276.9166,0.0017675,0.00027975,0.0,0 STARLINK-5002,1 53922U 22119AN  24216.81169289  .00027975  00000-0  17675-2 0  9993,2 53922  53.2156  50.5100 0001546  83.2002 276.9166 15.08867173103419,6917.797,95.436,540.732,538.593,0.0
53922.0,STARLINK-5002,PAYLOAD,2024-08-03 22:39:36,15.08878881,0.000154,53.2159,49.9159,79.5347,280.5818,0.0020903,0.00033172,0.0,0 STARLINK-5002,1 53922U 22119AN  24216.94416972  .00033172  00000-0  20903-2 0  9995,2 53922  53.2159  49.9159 0001540  79.5347 280.5818 15.08878881103853,6917.762,95.435,540.692,538.561,0.0
53922.0,STARLINK-5002,PAYLOAD,2024-08-04 12:58:04,15.08867707,0.0002627,53.2149,47.237,87.1766,272.9527,0.0016739,0.00026474,0.0,0 STARLINK-5002,1 53922U 22119AN  24217.54033077  .00026474  00000-0  16739-2 0  9992,2 53922  53.2149  47.2370 0002627  87.1766 272.9527 15.08867707103526,6917.796,95.436,541.478,537.843,0.0
53922.0,STARLINK-5002,PAYLOAD,2024-08-04 19:19:36,15.08861024,0.0001473,53.2155,46.048,93.1896,266.9265,0.00072867,0.00011334,0.0,0 STARLINK-5002,1 53922U 22119AN  24217.80528651  .00011334  00000-0  72867-3 0  9992,2 53922  53.2155  46.0480 0001473  93.1896 266.9265 15.08861024103563,6917.816,95.436,540.7,538.662,0.0
53922.0,STARLINK-5002,PAYLOAD,2024-08-05 20:45:46,15.08853127,0.0001116,53.2163,41.2908,87.2004,272.9115,0.00092708,0.00014503,0.0,0 STARLINK-5002,1 53922U 22119AN  24218.86512705  .00014503  00000-0  92708-3 0  9999,2 53922  53.2163  41.2908 0001116  87.2004 272.9115 15.08853127103727,6917.84,95.437,540.477,538.933,0.0
53922.0,STARLINK-5002,PAYLOAD,2024-08-06 04:42:42,15.08842354,0.0001173,53.2164,39.8028,90.6353,269.4774,0.00031432,4.718e-05,0.0,0 STARLINK-5002,1 53922U 22119AN  24219.19632839  .00004718  00000-0  31432-3 0  9991,2 53922  53.2164  39.8028 0001173  90.6353 269.4774 15.08842354103779,6917.873,95.437,540.55,538.927,0.0
53922.0,STARLINK-5002,PAYLOAD,2024-08-06 17:25:48,15.08834603,0.000131,53.2175,37.4267,114.7672,245.3456,0.00050814,7.807e-05,0.0,0 STARLINK-5002,1 53922U 22119AN  24219.72625151  .00007807  00000-0  50814-3 0  9996,2 53922  53.2175  37.4267 0001310 114.7672 245.3456 15.08834603103852,6917.897,95.438,540.668,538.856,0.0
53922.0,STARLINK-5002,PAYLOAD,2024-08-07 18:51:58,15.08849373,0.0001041,53.2168,32.6695,104.2837,255.8271,0.00048047,7.369e-05,0.0,0 STARLINK-5002,1 53922U 22119AN  24220.78609020  .00007369  00000-0  48047-3 0  9999,2 53922  53.2168  32.6695 0001041 104.2837 255.8271 15.08849373104014,6917.852,95.437,540.437,538.997,0.0
53922.0,STARLINK-5002,PAYLOAD,2024-08-08 17:07:22,15.08849042,0.0001184,53.2163,28.5054,76.1797,283.9327,0.00042085,6.418e-05,0.0,0 STARLINK-5002,1 53922U 22119AN  24221.71345189  .00006418  00000-0  42085-3 0  9996,2 53922  53.2163  28.5054 0001184  76.1797 283.9327 15.08849042104154,6917.853,95.437,540.537,538.899,0.0
53922.0,STARLINK-5002,PAYLOAD,2024-08-09 10:36:36,15.08851696,0.0001104,53.2154,25.2386,88.5579,271.554,0.0003908,5.939e-05,0.0,0 STARLINK-5002,1 53922U 22119AN  24222.44208844  .00005939  00000-0  39080-3 0  9991,2 53922  53.2154  25.2386 0001104  88.5579 271.5540 15.08851696104689,6917.845,95.437,540.473,538.946,0.0
53922.0,STARLINK-5002,PAYLOAD,2024-08-09 20:08:54,15.08863387,0.0001095,53.2177,23.4469,99.9874,260.1242,0.00043428,6.635e-05,0.0,0 STARLINK-5002,1 53922U 22119AN  24222.83951934  .00006635  00000-0  43428-3 0  9994,2 53922  53.2177  23.4469 0001095  99.9874 260.1242 15.08863387104323,6917.809,95.436,540.431,538.916,0.0
53922.0,STARLINK-5002,PAYLOAD,2024-08-10 10:27:23,15.08839889,0.0001605,53.2146,20.7749,78.8722,281.245,1.12e-05,-1.1e-06,0.0,0 STARLINK-5002,1 53922U 22119AN  24223.43569193 -.00000110  00000-0  11200-4 0  9990,2 53922  53.2146  20.7749 0001605  78.8722 281.2450 15.08839889104410,6917.881,95.438,540.856,538.635,0.0
53922.0,STARLINK-5002,PAYLOAD,2024-08-10 16:48:56,15.08839979,0.0001377,53.2169,19.5867,76.9539,283.1607,5.8511e-05,6.43e-06,0.0,0 STARLINK-5002,1 53922U 22119AN  24223.70065260  .00000643  00000-0  58511-4 0  9992,2 53922  53.2169  19.5867 0001377  76.9539 283.1607 15.08839979104878,6917.88,95.438,540.698,538.793,0.0
53922.0,STARLINK-5002,PAYLOAD,2024-08-11 19:50:29,15.08851046,0.0002065,53.2181,14.5264,93.1926,266.9303,0.00032858,4.947e-05,0.0,0 STARLINK-5002,1 53922U 22119AN  24224.82673169  .00004947  00000-0  32858-3 0  9995,2 53922  53.2181  14.5264 0002065  93.1926 266.9303 15.08851046104628,6917.847,95.437,541.14,538.283,0.0
53922.0,STARLINK-5002,PAYLOAD,2024-08-12 10:08:58,15.08846915,0.0002296,53.2156,11.8493,92.2904,267.8351,0.00023373,3.434e-05,0.0,0 STARLINK-5002,1 53922U 22119AN  24225.42289408  .00003434  00000-0  23373-3 0  9993,2 53922  53.2156  11.8493 0002296  92.2904 267.8351 15.08846915104718,6917.859,95.437,541.313,538.136,0.0
53922.0,STARLINK-5002,PAYLOAD,2024-08-12 16:30:29,15.08872111,0.0001259,53.2168,10.6645,81.2035,278.91,0.00070521,0.00010963,0.0,0 STARLINK-5002,1 53922U 22119AN  24225.68784153  .00010963  00000-0  70521-3 0  9990,2 53922  53.2168  10.6645 0001259  81.2035 278.9100 15.08872111104754,6917.782,95.436,540.518,538.776,0.0
53922.0,STARLINK-5002,PAYLOAD,2024-08-12 21:16:37,15.08898229,0.0001038,53.2172,9.772,85.9115,274.1996,0.0012558,0.00019786,0.0,0 STARLINK-5002,1 53922U 22119AN  24225.88654840  .00019786  00000-0  12558-2 0  9998,2 53922  53.2172   9.7720 0001038  85.9115 274.1996 15.08898229105207,6917.702,95.434,540.285,538.849,0.0
53922.0,STARLINK-5002,PAYLOAD,2024-08-13 11:35:09,15.08810694,0.0001867,53.2145,7.0952,101.5132,258.607,-0.00059546,-9.745e-05,0.0,0 STARLINK-5002,1 53922U 22119AN  24226.48274361 -.00009745  00000-0 -59546-3 0  9996,2 53922  53.2145   7.0952 0001867 101.5132 258.6070 15.08810694104871,6917.97,95.439,541.127,538.543,0.0
53922.0,STARLINK-5002,PAYLOAD,2024-08-13 19:32:04,15.08822783,0.0001851,53.2144,5.608,106.906,253.2135,-0.00024614,-4.202e-05,0.0,0 STARLINK-5002,1 53922U 22119AN  24226.81394192 -.00004202  00000-0 -24614-3 0  9999,2 53922  53.2144   5.6080 0001851 106.9060 253.2135 15.08822783104929,6917.933,95.439,541.079,538.518,0.0
